[{"OBJECT_NAME":"VIZARD-METEO (RS38S)","OBJECT_ID":"2023-091Z","EPOCH":"2026-03-09T23:01:09.168960","MEAN_MOTION":15.32764799,"ECCENTRICITY":0.00087615,"INCLINATION":97.5192,"RA_OF_ASC_NODE":136.6522,"ARG_OF_PERICENTER":71.7666,"MEAN_ANOMALY":288.4529,"EPHEMERIS_TYPE":0,"CLASSIFICATION_TYPE":"U","NORAD_CAT_ID":57189,"ELEMENT_SET_NO":999,"REV_AT_EPOCH":14947,"BSTAR":0.00066106249,"MEAN_MOTION_DOT":0.00020895,"MEAN_MOTION_DDOT":0},{"OBJECT_NAME":"STARLINK-36754","OBJECT_ID":"2026-026E","EPOCH":"2026-03-09T22:00:01.999584","MEAN_MOTION":15.47573266,"ECCENTRICITY":0.00014,"INCLINATION":97.2847,"RA_OF_ASC_NODE":123.4211,"ARG_OF_PERICENTER":67.9715,"MEAN_ANOMALY":323.3817,"EPHEMERIS_TYPE":0,"CLASSIFICATION_TYPE":"U","NORAD_CAT_ID":67725,"ELEMENT_SET_NO":999,"REV_AT_EPOCH":535,"BSTAR":-0.046489965,"MEAN_MOTION_DOT":-0.02120238,"MEAN_MOTION_DDOT":0}]
